[{"OBJECT_NAME":"STARLINK-3203","OBJECT_ID":"2021-115AP","EPOCH":"2026-03-09T10:13:09.926112","MEAN_MOTION":15.08834749,"ECCENTRICITY":0.00013882,"INCLINATION":53.2181,"RA_OF_ASC_NODE":140.3041,"ARG_OF_PERICENTER":85.9447,"MEAN_ANOMALY":274.1704,"EPHEMERIS_TYPE":0,"CLASSIFICATION_TYPE":"U","NORAD_CAT_ID":49761,"ELEMENT_SET_NO":999,"REV_AT_EPOCH":23563,"BSTAR":-3.6623807e-5,"MEAN_MOTION_DOT":-8.71e-6,"MEAN_MOTION_DDOT":0},{"OBJECT_NAME":"OBJECT K","OBJECT_ID":"2017-042K","EPOCH":"2026-03-09T21:28:20.621568","MEAN_MOTION":15.07994228,"ECCENTRICITY":0.00097557,"INCLINATION":97.4104,"RA_OF_ASC_NODE":233.8721,"ARG_OF_PERICENTER":49.2775,"MEAN_ANOMALY":310.9299,"EPHEMERIS_TYPE":0,"CLASSIFICATION_TYPE":"U","NORAD_CAT_ID":42834,"ELEMENT_SET_NO":999,"REV_AT_EPOCH":47201,"BSTAR":0.00042776846,"MEAN_MOTION_DOT":6.528e-5,"MEAN_MOTION_DDOT":0}]
